CUTE-1 (CO-55)          
1 27844U 03031E   22215.55446858  .00000083  00000+0  57029-4 0  9996
2 27844  98.6788 222.5295 0009253 332.5502  27.5186 14.22474767990561
CUBESAT XI-IV (CO-57)   
1 27848U 03031J   22215.81361516  .00000068  00000+0  50625-4 0  9994
2 27848  98.6833 223.2945 0009387 346.6123  13.4804 14.22029036990419
CUBESAT XI-V            
1 28895U 05043F   22215.32419245  .00000302  00000+0  65988-4 0  9990
2 28895  98.1125 345.9963 0016422 358.6498   1.4658 14.64410942894276
CUTE-1.7+APD II (CO-65) 
1 32785U 08021C   22215.71871243  .00000766  00000+0  85492-4 0  9991
2 32785  97.6604 185.0814 0014274  78.7412 281.5410 14.89722650773522
AAUSAT-II               
1 32788U 08021F   22215.94160745  .00001381  00000+0  12227-3 0  9996
2 32788  97.5354 199.5904 0010443 329.7689  30.2930 14.97797586775645
DELFI-C3 (DO-64)        
1 32789U 08021G   22215.86242730  .00005389  00000+0  29406-3 0  9992
2 32789  97.3374 240.4708 0011396 150.6682 209.5192 15.14702102779102
SEEDS II (CO-66)        
1 32791U 08021J   22215.49883734  .00001115  00000+0  11276-3 0  9998
2 32791  97.6145 190.3117 0013759  39.3037 320.9179 14.92867491774211
SWISSCUBE               
1 35932U 09051B   22215.83371286  .00000231  00000+0  62488-4 0  9994
2 35932  98.5640  73.0836 0006255 262.0877  97.9610 14.56914084682991
BEESAT-1                
1 35933U 09051C   22215.58233165  .00000202  00000+0  55964-4 0  9999
2 35933  98.5579  74.4225 0004488 279.1309  80.9381 14.56924087683032
ITUPSAT1                
1 35935U 09051E   22215.83479221  .00000167  00000+0  48995-4 0  9990
2 35935  98.5680  74.7252 0006814 280.8621  79.1809 14.56029084682779
TISAT 1                 
1 36799U 10035E   22215.83609476  .00000626  00000+0  66029-4 0  9998
2 36799  98.1785  68.1423 0010630 304.8960  55.1259 14.93071994655031
M-CUBED & EXP-1 PRIME   
1 37855U 11061F   22215.86193996  .00003382  00000+0  15176-3 0  9998
2 37855 101.7157   0.0653 0151614 280.1583  78.2562 15.12966126588405
AEROCUBE 4.5A           
1 38767U 12048K   22215.67884435  .00002123  00000+0  15627-3 0  9994
2 38767  64.6665 322.5097 0174031 249.7385 108.4947 14.95109888157849
AEROCUBE 4.5B           
1 38768U 12048L   22215.61012623  .00002771  00000+0  18188-3 0  9995
2 38768  64.6651 276.1942 0160548 245.2227 113.2113 14.99996510158224
STRAND-1                
1 39090U 13009E   22216.12153836  .00000067  00000+0  38342-4 0  9992
2 39090  98.4030  53.0090 0010031 124.9237 235.2893 14.35309592494254
BRITE-AUSTRIA           
1 39091U 13009F   22215.54923872  .00000024  00000+0  23175-4 0  9994
2 39091  98.4047  51.6269 0011322 133.3275 226.8856 14.35287983494181
SOMP                    
1 39134U 13015E   22215.58910145  .00006195  00000+0  21865-3 0  9990
2 39134  64.8600 267.0661 0035800 273.4039  86.2998 15.29575118514060
BEESAT-3                
1 39135U 13015F   22215.69647568  .00004619  00000+0  19084-3 0  9998
2 39135  64.8661 303.9187 0039269 278.4090  81.2589 15.24633733513317
BEESAT-2                
1 39136U 13015G   22215.70984950  .00004432  00000+0  19186-3 0  9996
2 39136  64.8753 312.3140 0019737 296.4815  63.4290 15.23614083513111
NEE-01 PEGASO           
1 39151U 13018B   22216.00881038  .00000493  00000+0  70404-4 0  9997
2 39151  97.9942 321.5179 0018193 100.7445 259.5817 14.81034248500728
ESTCUBE 1               
1 39161U 13021C   22216.10971325  .00000405  00000+0  70561-4 0  9999
2 39161  97.9067 292.1066 0008028 268.7775  91.2520 14.73025803496489
POPACS 1                
1 39268U 13055D   22215.62966963  .00013188  00000+0  32863-3 0  9996
2 39268  80.9963 188.7211 0568078  58.0343 307.4781 14.51570887460141
POPACS 2                
1 39269U 13055E   22215.35182100  .00004556  00000+0  12515-3 0  9991
2 39269  81.0093 247.2091 0644371 209.5837 146.7417 14.33443877456904
POPACS 3                
1 39270U 13055F   22215.51188163  .00002320  00000+0  70586-4 0  9996
2 39270  81.0142 280.7572 0686543 304.6668  49.1615 14.22339551435323
ZACUBE-1 (TSHEPISOSAT)  
1 39417U 13066B   22215.68385214  .00000599  00000+0  79199-4 0  9990
2 39417  97.6394 185.0607 0056043 249.3023 110.2178 14.82482559470124
WNISAT-1                
1 39423U 13066H   22216.13813839  .00000256  00000+0  60032-4 0  9993
2 39423  97.7471  94.0893 0174646 349.3417  10.4081 14.53532417461370
TRITON-1                
1 39427U 13066M   22215.53815381  .00000582  00000+0  97871-4 0  9997
2 39427  97.8132 149.2898 0113053 113.8516 247.4587 14.69052252465699
DELFI-N3XT              
1 39428U 13066N   22215.38161364  .00000833  00000+0  13466-3 0  9992
2 39428  97.8141 147.7279 0118209 127.2871 233.9183 14.69317039465427
GOMX-1                  
1 39430U 13066Q   22216.00909598  .00000412  00000+0  82584-4 0  9995
2 39430  97.8053 120.4892 0147647 254.9359 103.5465 14.60288152463234
CUBEBUG-2 (LO-74)       
1 39440U 13066AA  22215.60449762  .00000776  00000+0  11169-3 0  9996
2 39440  97.7286 171.1883 0078090 339.7155  20.0958 14.77141412467246
NEE-02 KRYSAOR          
1 39441U 13066AB  22215.85114409  .00000554  00000+0  84050-4 0  9995
2 39441  97.7396 168.5835 0080334 352.7686   7.2358 14.75837954467022
FUNCUBE-1 (AO-73)       
1 39444U 13066AE  22215.59824675  .00000673  00000+0  85953-4 0  9997
2 39444  97.6273 187.3910 0055011 237.1538 122.4374 14.83589771468510
UWE-3                   
1 39446U 13066AG  22215.34178349  .00000637  00000+0  88662-4 0  9992
2 39446  97.6884 177.3898 0067087 297.1554  62.2828 14.79705933467399
AEROCUBE 5A             
1 39465U 13072D   22215.79006998  .00027038  00000+0  15124-2 0  9994
2 39465 120.4824 129.4965 0193510 331.0851  27.9608 14.98839627156715
AEROCUBE 5B             
1 39466U 13072E   22215.69077303  .00067994  00000+0  21599-2 0  9990
2 39466 120.4567 221.5344 0129408 353.1637   6.7676 15.24309289157916
BRITE-CA1 (TORONTO)     
1 40020U 14033L   22216.02435392  .00000262  00000+0  52165-4 0  9990
2 40020  97.7839  12.5759 0088137 111.4753 249.5879 14.67093270434755
DUCHIFAT-1              
1 40021U 14033M   22215.52259083  .00001081  00000+0  10939-3 0  9998
2 40021  98.0145 166.5917 0010926 242.5171 117.4938 14.93114039441727
NANOSATC-BR1            
1 40024U 14033Q   22215.56458688  .00000855  00000+0  90263-4 0  9994
2 40024  97.9869 159.7544 0010304 249.8837 110.1273 14.91923093441009
QB50P1                  
1 40025U 14033R   22215.58298902  .00000948  00000+0  10255-3 0  9993
2 40025  97.9609 153.3572 0010611 261.5415  98.4600 14.90667996440789
QB50P2                  
1 40032U 14033Y   22215.35820251  .00000864  00000+0  95289-4 0  9992
2 40032  97.9377 148.3338 0010037 259.9014 100.1071 14.90081799440606
PERSEUS-M2              
1 40037U 14033AD  22215.33839831  .00000310  00000+0  40605-4 0  9997
2 40037  97.8947 137.2964 0012815 286.2057  73.7748 14.87169491440092
PERSEUS-M1              
1 40039U 14033AF  22215.74931470  .00000314  00000+0  41462-4 0  9992
2 40039  97.8846 135.3808 0012636 283.7206  76.2603 14.86777159440034
POLYITAN-1              
1 40042U 14033AJ  22215.59607479  .00001069  00000+0  11472-3 0  9993
2 40042  97.9715 154.6255 0012729 252.7887 107.1938 14.90722508440676
TIGRISAT                
1 40043U 14033AK  22215.50931977  .00000320  00000+0  53416-4 0  9992
2 40043  97.6568  42.2310 0059316   5.5390 354.6463 14.75087299436862
AEROCUBE 6A             
1 40045U 14033AM  22216.18005753  .00000336  00000+0  54238-4 0  9993
2 40045  97.6654  51.7857 0056628 351.1530   8.8677 14.76479857437064
AEROCUBE 6B             
1 40046U 14033AN  22215.73911679  .00000646  00000+0  96820-4 0  9994
2 40046  97.6569  49.8065 0055506 350.6453   9.3719 14.76866472436763
UKUBE-1                 
1 40074U 14037F   22216.17665483  .00000689  00000+0  86704-4 0  9994
2 40074  98.3762  99.3326 0005029 123.7468 236.4221 14.85536585437151
BRITE-PL2 (HEWELIUSZ)   
1 40119U 14049B   22216.24642700  .00000400  00000+0  52862-4 0  9991
2 40119  97.8848 311.3858 0018644  86.5684 273.7663 14.85210598431195
FIREBIRD 4              
1 40378U 15003C   22215.59545575  .00007580  00000+0  22194-3 0  9998
2 40378  99.0939  91.2792 0096996 224.3630 134.9806 15.31035452415631
GRIFEX                  
1 40379U 15003D   22216.13154424  .00004116  00000+0  14643-3 0  9991
2 40379  99.1067  77.3208 0112732 267.1757  91.6568 15.23943162414892
CP10 (EXOCUBE)          
1 40380U 15003E   22215.81535509  .00002748  00000+0  10804-3 0  9998
2 40380  99.1169  69.5281 0121163 293.3157  65.5361 15.20379515414358
TIANWANG 1A (TW-1A)     
1 40928U 15051D   22216.02398808  .00026866  00000+0  29338-3 0  9991
2 40928  97.0354 238.3695 0007166 183.6621 207.1027 15.63294200385665
EXACTVIEW 9             
1 40936U 15052G   22211.99371057  .00001154  00000+0  70610-4 0  9992
2 40936   6.0004 222.9170 0010525  50.5606 309.5180 14.77223694369719
AEROCUBE 5C             
1 40965U 15058B   22215.68621319  .00000873  00000+0  11438-3 0  9998
2 40965  64.7782 308.0155 0186934 185.0566 174.8659 14.75752414155937
AEROCUBE 7              
1 40966U 15058C   22215.53118522  .00001092  00000+0  13714-3 0  9993
2 40966  64.7781 305.5572 0184911 184.7609 175.1746 14.76337981155917
ATHENOXAT 1             
1 41168U 15077C   22215.95211468  .00006424  00000+0  24074-3 0  9993
2 41168  14.9832  98.0804 0008597 189.6873 272.1554 15.21959619367559
GALASSIA                
1 41170U 15077E   22215.88015538  .00005387  00000+0  20194-3 0  9994
2 41170  14.9882  89.8223 0010484 216.8360 143.1242 15.21102041367451
VELOX-II                
1 41171U 15077F   22215.49275849  .00004190  00000+0  17440-3 0  9996
2 41171  14.9900 168.4425 0007558  43.8999 316.1922 15.16313353366769
HORYU-4                 
1 41340U 16012D   22215.84244887  .00001342  00000+0  89445-4 0  9992
2 41340  31.0051  56.4254 0013420 312.1098  47.8397 15.03545233354869
